NORAD_CAT_ID,OBJECT_NAME,OBJECT_TYPE,EPOCH,MEAN_MOTION,ECCENTRICITY,INCLINATION,RA_OF_ASC_NODE,ARG_OF_PERICENTER,MEAN_ANOMALY,BSTAR,MEAN_MOTION_DOT,MEAN_MOTION_DDOT,TLE_LINE0,TLE_LINE1,TLE_LINE2,SEMIMAJOR_AXIS,PERIOD,APOGEE,PERIGEE,DECAYED
52858.0,STARLINK-4198,PAYLOAD,2024-05-10 17:27:15,15.08839033,0.0001268,53.2161,142.7451,87.2445,272.8692,8.2605e-05,1.027e-05,0.0,0 STARLINK-4198,1 52858U 22062AE  24131.72726649  .00001027  00000-0  82605-4 0  9999,2 52858  53.2161 142.7451 0001268  87.2445 272.8692 15.08839033105089,6917.883,95.438,540.626,538.871,0.0
52858.0,STARLINK-4198,PAYLOAD,2024-05-11 04:34:58,15.08838596,0.0001419,53.2174,140.6647,90.6383,269.4772,1.1203e-05,-1.1e-06,0.0,0 STARLINK-4198,1 52858U 22062AE  24132.19095123 -.00000110  00000-0  11203-4 0  9996,2 52858  53.2174 140.6647 0001419  90.6383 269.4772 15.08838596105640,6917.885,95.438,540.731,538.768,0.0
52858.0,STARLINK-4198,PAYLOAD,2024-05-11 17:18:01,15.08855309,0.0001592,53.2183,138.2867,89.5724,270.545,0.00016531,2.345e-05,0.0,0 STARLINK-4198,1 52858U 22062AE  24132.72085459  .00002345  00000-0  16531-3 0  9995,2 52858  53.2183 138.2867 0001592  89.5724 270.5450 15.08855309105721,6917.834,95.437,540.8,538.597,0.0
52858.0,STARLINK-4198,PAYLOAD,2024-05-12 04:25:45,15.0881801,6.06e-05,53.2155,136.1967,67.8708,292.2348,-0.00033516,-5.614e-05,0.0,0 STARLINK-4198,1 52858U 22062AE  24133.18455311 -.00005614  00000-0 -33516-3 0  9990,2 52858  53.2155 136.1967 0000606  67.8708 292.2348 15.08818010105796,6917.948,95.439,540.232,539.393,0.0
52858.0,STARLINK-4198,PAYLOAD,2024-05-12 09:11:56,15.08796248,0.0001339,53.2161,135.3129,85.2846,274.8299,-0.00058436,-9.565e-05,0.0,0 STARLINK-4198,1 52858U 22062AE  24133.38329099 -.00009565  00000-0 -58436-3 0  9992,2 52858  53.2161 135.3129 0001339  85.2846 274.8299 15.08796248105828,6918.014,95.44,540.805,538.953,0.0
52858.0,STARLINK-4198,PAYLOAD,2024-05-12 20:19:38,15.08804767,9.54e-05,53.2177,133.2269,100.0556,260.0543,-0.00030525,-5.138e-05,0.0,0 STARLINK-4198,1 52858U 22062AE  24133.84697383 -.00005138  00000-0 -30525-3 0  9998,2 52858  53.2177 133.2269 0000954 100.0556 260.0543 15.08804767105895,6917.988,95.44,540.513,539.193,0.0
52858.0,STARLINK-4198,PAYLOAD,2024-05-13 04:16:34,15.08817949,0.0001032,53.2168,131.7414,96.1414,263.9696,-6.324e-05,-1.293e-05,0.0,0 STARLINK-4198,1 52858U 22062AE  24134.17817344 -.00001293  00000-0 -63240-4 0  9995,2 52858  53.2168 131.7414 0001032  96.1414 263.9696 15.08817949105949,6917.948,95.439,540.527,539.099,0.0
52858.0,STARLINK-4198,PAYLOAD,2024-05-13 09:02:43,15.08825776,0.000131,53.2158,130.849,120.5979,239.5142,-9.1163e-05,-1.738e-05,0.0,0 STARLINK-4198,1 52858U 22062AE  24134.37689179 -.00001738  00000-0 -91163-4 0  9999,2 52858  53.2158 130.8490 0001310 120.5979 239.5142 15.08825776105480,6917.924,95.438,540.695,538.883,0.0
52858.0,STARLINK-4198,PAYLOAD,2024-05-13 16:59:39,15.08830856,0.0001333,53.2162,129.3654,96.912,263.2024,8.7267e-05,1.101e-05,0.0,0 STARLINK-4198,1 52858U 22062AE  24134.70809424  .00001101  00000-0  87267-4 0  9995,2 52858  53.2162 129.3654 0001333  96.9120 263.2024 15.08830856106028,6917.908,95.438,540.695,538.851,0.0
52858.0,STARLINK-4198,PAYLOAD,2024-05-14 08:53:31,15.08837536,0.0001101,53.2157,126.3901,98.7159,261.3958,0.00076811,0.00011957,0.0,0 STARLINK-4198,1 52858U 22062AE  24135.37049919  .00011957  00000-0  76811-3 0  9996,2 52858  53.2157 126.3901 0001101  98.7159 261.3958 15.08837536105632,6917.888,95.438,540.515,538.991,0.0
52858.0,STARLINK-4198,PAYLOAD,2024-05-14 16:50:26,15.08852948,0.0001104,53.2156,124.903,100.7986,259.3131,0.00072188,0.00011223,0.0,0 STARLINK-4198,1 52858U 22062AE  24135.70169438  .00011223  00000-0  72188-3 0  9991,2 52858  53.2156 124.9030 0001104 100.7986 259.3131 15.08852948106177,6917.841,95.437,540.47,538.942,0.0
52858.0,STARLINK-4198,PAYLOAD,2024-05-15 05:33:30,15.08875968,0.0001077,53.2154,122.5237,103.2952,256.8161,0.00073095,0.00011376,0.0,0 STARLINK-4198,1 52858U 22062AE  24136.23160082  .00011376  00000-0  73095-3 0  9993,2 52858  53.2154 122.5237 0001077 103.2952 256.8161 15.08875968106259,6917.77,95.435,540.38,538.89,0.0
52858.0,STARLINK-4198,PAYLOAD,2024-05-15 08:44:16,15.08887132,0.0001097,53.2155,121.9291,102.4901,257.6214,0.0010239,0.00016066,0.0,0 STARLINK-4198,1 52858U 22062AE  24136.36407661  .00016066  00000-0  10239-2 0  9995,2 52858  53.2155 121.9291 0001097 102.4901 257.6214 15.08887132105781,6917.736,95.435,540.36,538.842,0.0
52858.0,STARLINK-4198,PAYLOAD,2024-05-16 05:24:16,15.08859557,0.0001002,53.2156,118.0629,86.5407,273.57,0.00034292,5.177e-05,0.0,0 STARLINK-4198,1 52858U 22062AE  24137.22519229  .00005177  00000-0  34292-3 0  9992,2 52858  53.2156 118.0629 0001002  86.5407 273.5700 15.08859557106400,6917.821,95.436,540.379,538.992,0.0
52858.0,STARLINK-4198,PAYLOAD,2024-05-16 22:53:31,15.08843097,0.0001315,53.2166,114.791,90.1892,269.9251,0.00043358,6.62e-05,0.0,0 STARLINK-4198,1 52858U 22062AE  24137.95383220  .00006620  00000-0  43358-3 0  9999,2 52858  53.2166 114.7910 0001315  90.1892 269.9251 15.08843097106023,6917.871,95.437,540.646,538.826,0.0
52858.0,STARLINK-4198,PAYLOAD,2024-05-17 05:15:03,15.08853144,0.0001202,53.2161,113.6025,92.639,267.474,4.6406e-05,4.51e-06,0.0,0 STARLINK-4198,1 52858U 22062AE  24138.21878794  .00000451  00000-0  46406-4 0  9998,2 52858  53.2161 113.6025 0001202  92.6390 267.4740 15.08853144106556,6917.84,95.437,540.537,538.874,0.0
52858.0,STARLINK-4198,PAYLOAD,2024-05-17 14:47:22,15.08847244,0.0001106,53.2154,111.8178,89.359,270.7528,2.7748e-05,1.54e-06,0.0,0 STARLINK-4198,1 52858U 22062AE  24138.61622835  .00000154  00000-0  27748-4 0  9993,2 52858  53.2154 111.8178 0001106  89.3590 270.7528 15.08847244106123,6917.858,95.437,540.488,538.958,0.0
52858.0,STARLINK-4198,PAYLOAD,2024-05-17 22:44:18,15.08837172,0.0001668,53.2175,110.3331,93.9912,266.1271,-2.1389e-05,-6.28e-06,0.0,0 STARLINK-4198,1 52858U 22062AE  24138.94743572 -.00000628  00000-0 -21389-4 0  9994,2 52858  53.2175 110.3331 0001668  93.9912 266.1271 15.08837172106171,6917.889,95.438,540.908,538.6,0.0
52858.0,STARLINK-4198,PAYLOAD,2024-05-18 05:05:50,15.08840831,0.0001368,53.217,109.1475,96.9528,263.162,-1.471e-06,-3.11e-06,0.0,0 STARLINK-4198,1 52858U 22062AE  24139.21239390 -.00000311  00000-0 -14710-5 0  9993,2 52858  53.2170 109.1475 0001368  96.9528 263.1620 15.08840831106704,6917.878,95.438,540.689,538.796,0.0
52858.0,STARLINK-4198,PAYLOAD,2024-05-18 14:38:09,15.08838598,0.0001146,53.2155,107.3593,80.6206,279.4916,4.1381e-05,3.71e-06,0.0,0 STARLINK-4198,1 52858U 22062AE  24139.60983572  .00000371  00000-0  41381-4 0  9991,2 52858  53.2155 107.3593 0001146  80.6206 279.4916 15.08838598106272,6917.885,95.438,540.542,538.957,0.0
52858.0,STARLINK-4198,PAYLOAD,2024-05-18 20:59:42,15.08837475,0.0001184,53.2153,106.1709,88.4847,271.628,6.1797e-05,6.96e-06,0.0,0 STARLINK-4198,1 52858U 22062AE  24139.87479670  .00000696  00000-0  61797-4 0  9992,2 52858  53.2153 106.1709 0001184  88.4847 271.6280 15.08837475106311,6917.888,95.438,540.572,538.934,0.0
52858.0,STARLINK-4198,PAYLOAD,2024-05-19 04:56:38,15.08839298,0.0001205,53.2157,104.6845,90.6652,269.4478,7.8677e-05,9.64e-06,0.0,0 STARLINK-4198,1 52858U 22062AE  24140.20599641  .00000964  00000-0  78677-4 0  9995,2 52858  53.2157 104.6845 0001205  90.6652 269.4478 15.08839298106366,6917.883,95.438,540.581,538.914,0.0
52858.0,STARLINK-4198,PAYLOAD,2024-05-20 04:47:24,15.08848054,0.0001421,53.2165,100.2229,86.1307,273.9847,0.00025023,3.698e-05,0.0,0 STARLINK-4198,1 52858U 22062AE  24141.19959437  .00003698  00000-0  25023-3 0  9990,2 52858  53.2165 100.2229 0001421  86.1307 273.9847 15.08848054107002,6917.856,95.437,540.704,538.738,0.0
52858.0,STARLINK-4198,PAYLOAD,2024-05-21 04:38:12,15.08836336,0.00014,53.217,95.7626,90.401,269.7143,7.8066e-06,-1.64e-06,0.0,0 STARLINK-4198,1 52858U 22062AE  24142.19320199 -.00000164  00000-0  78066-5 0  9991,2 52858  53.2170  95.7626 0001400  90.4010 269.7143 15.08836336107151,6917.892,95.438,540.725,538.788,0.0
52858.0,STARLINK-4198,PAYLOAD,2024-05-21 06:13:35,15.0883787,0.000136,53.2169,95.4641,90.5683,269.5465,7.1111e-06,-1.75e-06,0.0,0 STARLINK-4198,1 52858U 22062AE  24142.25944084 -.00000175  00000-0  71111-5 0  9999,2 52858  53.2169  95.4641 0001360  90.5683 269.5465 15.08837870106670,6917.887,95.438,540.693,538.811,0.0
52858.0,STARLINK-4198,PAYLOAD,2024-05-22 02:53:36,15.08848737,0.0001573,53.217,91.598,77.0556,283.0611,8.6859e-05,1.095e-05,0.0,0 STARLINK-4198,1 52858U 22062AE  24143.12055840  .00001095  00000-0  86859-4 0  9994,2 52858  53.2170  91.5980 0001573  77.0556 283.0611 15.08848737107297,6917.854,95.437,540.807,538.631,0.0
52858.0,STARLINK-4198,PAYLOAD,2024-05-22 06:04:22,15.0885294,0.0001672,53.218,90.9968,76.596,283.5219,0.0001883,2.711e-05,0.0,0 STARLINK-4198,1 52858U 22062AE  24143.25303593  .00002711  00000-0  18830-3 0  9998,2 52858  53.2180  90.9968 0001672  76.5960 283.5219 15.08852940106828,6917.841,95.437,540.862,538.549,0.0
52858.0,STARLINK-4198,PAYLOAD,2024-05-23 02:44:23,15.08840546,0.0001692,53.2194,87.1231,115.164,244.9527,0.00010614,1.402e-05,0.0,0 STARLINK-4198,1 52858U 22062AE  24144.11416048  .00001402  00000-0  10614-3 0  9992,2 52858  53.2194  87.1231 0001692 115.1640 244.9527 15.08840546107442,6917.879,95.438,540.914,538.573,0.0
52858.0,STARLINK-4198,PAYLOAD,2024-05-23 05:55:10,15.08839939,0.0001484,53.2178,86.5402,77.9523,282.1636,0.00011384,1.524e-05,0.0,0 STARLINK-4198,1 52858U 22062AE  24144.24664427  .00001524  00000-0  11384-3 0  9992,2 52858  53.2178  86.5402 0001484  77.9523 282.1636 15.08839939106977,6917.881,95.438,540.772,538.719,0.0
52858.0,STARLINK-4198,PAYLOAD,2024-05-24 05:45:56,15.08846206,0.0001756,53.2184,82.0779,120.6131,239.5034,-1.2539e-05,-4.88e-06,0.0,0 STARLINK-4198,1 52858U 22062AE  24145.24024022 -.00000488  00000-0 -12539-4 0  9998,2 52858  53.2184  82.0779 0001756 120.6131 239.5034 15.08846206107610,6917.861,95.437,540.941,538.512,0.0
